#cP2021 10 16  0  0  0.00000000      96 ORBIT IGb14 HLM  IGS
## 2179 518400.00000000   900.00000000 59503 0.0000000000000
+   32   G01G02G03G04G05G06G07G08G09G10G11G12G13G14G15G16G17
+        G18G19G20G21G22G23G24G25G26G27G28G29G30G31G32  0  0
+          0  0  0  0  0  0  0  0  0  0  0  0  0  0  0  0  0
+          0  0  0  0  0  0  0  0  0  0  0  0  0  0  0  0  0
+          0  0  0  0  0  0  0  0  0  0  0  0  0  0  0  0  0
++         2  2  2  2  1  2  2  2  1  2  3  1  1  2  1  2  2
++         2  2  1  2  1  2  2  1  2  2  2  2  2  2  2  0  0
++         0  0  0  0  0  0  0  0  0  0  0  0  0  0  0  0  0
++         0  0  0  0  0  0  0  0  0  0  0  0  0  0  0  0  0
++         0  0  0  0  0  0  0  0  0  0  0  0  0  0  0  0  0
%c G  cc GPS ccc cccc cccc cccc cccc ccccc ccccc ccccc ccccc
%c cc cc ccc ccc cccc cccc cccc cccc ccccc ccccc ccccc ccccc
%f  1.2500000  1.025000000  0.00000000000  0.000000000000000
%f  0.0000000  0.000000000  0.00000000000  0.000000000000000
%i    0    0    0    0      0      0      0      0         0
%i    0    0    0    0      0      0      0      0         0
/* FINAL ORBIT COMBINATION FROM WEIGHTED AVERAGE OF:        
/* cod emr esa gfz grg jpl mit ngs sio                      
/* REFERENCED TO IGS TIME (IGST) AND TO WEIGHTED MEAN POLE: 
/* PCV:IGS14_2178 OL/AL:FES2004  NONE     Y  ORB:CMB CLK:CMB
*  2021 10 16 21 45  0.00000000
PG01 -21191.492673 -12536.109212  10113.835193    537.402373  6  5  5 112       
PG02  11899.069458  21094.581506  11461.841046   -637.768578  4  6  6  92       
PG03 -14120.523280  -4984.030632  21834.508534   -327.407872  5  2  5  75       
PG04 -24633.171833  -1701.921769   9881.416496   -203.569743  7  6  4  90       
PG05   7943.587845  18697.354377 -17193.214306    -57.901528  4  2  4  77       
PG06  -1083.509388  17731.769632  19786.778527     96.121065  6  7  5  78       
PG07 -17614.436577   1798.794480 -19572.751632    263.535432  6  5  5  82       
PG08 -17378.177045  -8417.728927 -18386.050029    -40.366205  6  4  4  77       
PG09 -25398.865826   7750.620505  -1114.527392   -361.845975  2  2  4 100       
PG10  11651.636607 -22412.076431  -7593.639054   -225.415158  5  4  5  91       
PG11   9212.843163  22351.345413  11007.079273     21.224393  4  3  6  34       
PG12  13146.821015   7200.829251  21682.745272   -112.554982  3  5  3  94       
PG13   9580.208446  13422.689720 -21001.250668    200.587527  4  5  5 105       
PG14 -12782.027297  22020.534334  -7460.872255    -20.276367  4  3  5  45       
PG15  18706.402665   7165.825156 -17993.003035   -113.462716  5  5  5  92       
PG16  -2934.846124 -21494.780746 -15250.654460   -408.202885  8  5  7  85       
PG17 -18692.021692  13096.609940  14032.563971    520.129898  5  5  5  74       
PG18  16219.223234  -3501.409826 -20770.176591    309.281950  5  7  7  76       
PG19 -10737.651388  14519.437672  19150.719849     66.758343  5  6  3  97       
PG20   2219.101053  25575.289556  -7355.301367    518.598797  5     3  72       
PG21 -21335.644894 -16187.760362   2782.175265    147.920900  5  2  5 102       
PG22 -12361.171263 -13298.044519  19621.569973   -487.639545  7  2  2  86       
PG23  15462.307325 -13406.545240 -16909.407904     44.294357  3  4  6  58       
PG24  21954.631621  14327.861154   5185.560943    254.584430  6  4  6  92       
PG25  16084.051856  -4772.331332  20262.839646    225.508984  3  5  2  86       
PG26   4146.192622 -25965.010520  -2447.798568    145.585349  7  7  5 100       
PG27  -6951.639706 -13594.426433 -21944.024932   -207.128277  6  2  6  61       
PG28  -9454.101970  24937.796709    245.667245    481.228255  7  4  9 104       
PG29  26313.103225  -3264.681109   2026.698676   -427.231906  5  7  5  91       
PG30  -9468.048941  12720.332711 -21219.208652   -482.989503  4  5  3  68       
PG31   -136.325369 -19049.376731  18204.060670   -145.298926  5  3  5  96       
PG32  14791.107826 -15373.224124  15822.510492    -10.948712  4  5  3  95       
*  2021 10 16 22  0  0.00000000
PG01 -21820.488173 -13364.707054   7466.944768    537.392728  6  5  5 111       
PG02  10733.196832  20378.435656  13811.015799   -637.770423  3  6  6 102       
PG03 -13501.712261  -7407.460494  21546.611737   -327.420064  5  1  4  72       
PG04 -23455.684883  -2220.569831  12332.903083   -203.569307  7  6  4  82       
PG05   7395.991120  20460.617521 -15293.420097    -57.902829  4  2  4  87       
PG06  -2797.171645  16177.309278  20926.332746     96.128484  5  6  5  89       
PG07 -19125.460530    163.033247 -18260.256756    263.540903  6  5  5  78       
PG08 -15335.182932  -9156.255571 -19770.229017    -40.366816  6  4  5  78       
PG09 -25438.721767   7476.669746   1725.395255   -361.845993  3  2  4  83       
PG10  11628.871307 -21345.072094 -10232.537437   -225.422481  5  4  5  89       
PG11   8109.752523  21470.538400  13370.706744     21.224467  5  5  6   5       
PG12  12344.154665   9574.842756  21248.561400   -112.559921  3  5  3  98       
PG13   7208.106116  13824.397531 -21669.444945    200.591642  4  5  5 107       
PG14 -12742.832255  20984.969339 -10063.997506    -20.283178  4  3  5  57       
PG15  16863.234617   8106.852456 -19362.709299   -113.460198  5  5  5  92       
PG16  -2231.751850 -22939.141081 -13030.997454   -408.208693  8  5  7 106       
PG17 -20094.554297  13257.371371  11671.862945    520.134835  6  4  6  64       
PG18  17790.552064  -1809.380669 -19679.185787    309.277353  6  6  7  76       
PG19 -12878.823787  14772.506755  17580.339367     66.762979  6  6  3 101       
PG20   1875.657090  26228.782777  -4669.517749    518.598718  4     3  76       
PG21 -21260.224678 -16406.456021    -31.909971    147.922710  5  2  5 100       
PG22 -11930.586573 -15398.707043  18314.720487   -487.631470  7  2  2  85       
PG23  15170.331510 -11394.591916 -18576.673979     44.290140  3  4  6  74       
PG24  22123.603971  14849.483033   2450.047384    254.589987  6  5  7  92       
PG25  15596.577524  -2395.296678  21062.971008    225.514513  3  5  2  97       
PG26   4498.972675 -26011.316675    379.172311    145.588896  6  7  5 103       
PG27  -4573.017749 -14280.088883 -22101.309472   -207.132695  6  3  6  72       
PG28  -9592.028829  24684.280732  -2613.751944    481.221675  7  4  9 115       
PG29  25961.064951  -3001.691168   4886.532707   -427.237092  5  7  5 102       
PG30 -11220.514266  10994.253100 -21349.992676   -482.992672  5  6  4  81       
PG31   1519.976440 -17596.456317  19586.715931   -145.300895  5  4  5  97       
PG32  16458.883669 -15658.295939  13727.398951    -10.952444  4  5  4  92       
*  2021 10 16 22 15  0.00000000
PG01 -22264.429097 -13952.454109   4692.874424    537.383047  7  5  5 107       
PG02   9334.912149  19578.783664  15930.284549   -637.771854  3  5  6 100       
PG03 -13023.313928  -9806.169995  20884.787069   -327.432278  5  1  4  92       
PG04 -22053.881982  -2880.167413  14572.924843   -203.568873  7  6  5  97       
PG05   6971.946121  22024.534731 -13131.442516    -57.903787  4  2  4  65       
PG06  -4677.359422  14651.116146  21707.330868     96.135974  4  6  5  69       
PG07 -20587.214294  -1279.538826 -16629.335983    263.546700  7  5  5  80       
PG08 -13203.864545 -10052.231713 -20817.369318    -40.368091  6  5  6  72       
PG09 -25193.400653   7092.694225   4535.649670   -361.846121  3  2  4  97       
PG10  11610.555306 -19991.523359 -12691.565029   -225.429782  5  4  5  97       
PG11   6778.336985  20472.212925  15504.266902     21.224550  7  6  5           
PG12  11687.383520  11917.509145  20440.956038   -112.565122  4  4  3  74       
PG13   4806.630747  14364.737618 -21970.393208    200.596813  5  5  6 108       
PG14 -12692.632954  19671.111562 -12493.394890    -20.289964  4  4  4  60       
PG15  14947.154427   9195.754708 -20412.581502   -113.457525  6  5  5  94       
PG16  -1675.023710 -24165.937369 -10584.975306   -408.214591  8  5  7  85       
PG17 -21223.587158  13418.041183   9114.640504    520.139705  6  4  6  90       
PG18  19343.407127   -299.395706 -18250.711701    309.272830  7  6  7  74       
PG19 -14809.749634  15095.457593  15699.372801     66.767578  6  6  4 106       
PG20   1575.365739  26592.835416  -1904.678253    518.598383  4     4  68       
PG21 -20938.935408 -16448.216973  -2845.398965    147.924134  6  1  5 101       
PG22 -11616.430621 -17354.486523  16698.915182   -487.623026  7     2  88       
PG23  14958.379580  -9202.058603 -19924.021994     44.285944  3  4  6  55       
PG24  22070.664389  15177.088327   -326.740482    254.595569  7  5  7  60       
PG25  15218.344379     70.759277  21490.611750    225.520077  3  5  2  77       
PG26   4805.867197 -25756.450684   3199.491474    145.592405  6  6  4  97       
PG27  -2235.246861 -15095.188762 -21884.558149   -207.137177  6  3  6  69       
PG28  -9660.088242  24127.565354  -5428.384617    481.214952  7  5  9 121       
PG29  25316.103190  -2634.519935   7662.508380   -427.241861  6  7  5  87       
PG30 -13047.630940   9360.163254 -21111.182272   -482.995809  5  7  4  83       
PG31   3347.406735 -16138.570720  20625.172811   -145.302329  5  4  5  92       
PG32  17875.840384 -15943.138343  11395.589400    -10.956148  4  4  4  95       
EOF
